ZHONGXING-10            
1 37677U 11026A   26094.14003204 -.00000189  00000+0  00000+0 0  9992
2 37677   0.8561  85.0344 0002713 305.5304 297.8679  1.00270895 54255
SES-3                   
1 37748U 11035A   26094.51233750 -.00000101  00000+0  00000+0 0  9997
2 37748   1.1362  83.8506 0003458 295.8621 254.5472  1.00271518 53852
KAZSAT-2                
1 37749U 11035B   26094.22058874 -.00000198  00000+0  00000+0 0  9994
2 37749   0.0396 327.0971 0001277 117.4627 273.8965  1.00270853 52658
BREEZE-M R/B            
1 37751U 11035D   26094.10539286 -.00000119  00000+0  00000+0 0  9998
2 37751   9.2959  34.8210 0771885  63.0968 128.3359  1.12713034 60543
BEIDOU-2 IGSO-4         
1 37763U 11038A   26087.66258249 -.00000109  00000+0  00000+0 0  9993
2 37763  54.5871 166.4040 0156581 231.4212 120.2889  1.00260433 53838
ASTRA 1N                
1 37775U 11041A   26094.09003069  .00000119  00000+0  00000+0 0  9993
2 37775   0.0874  41.2005 0005044 359.6758 203.1299  1.00269556 43780
BSAT-3C (JCSAT-110R)    
1 37776U 11041B   26093.98414572 -.00000353  00000+0  00000+0 0  9997
2 37776   0.0464  38.8948 0000362  14.5663 243.1013  1.00283675 49720
PAKSAT-1R               
1 37779U 11042A   26094.18822532  .00000153  00000+0  00000+0 0  9990
2 37779   0.4971  85.1589 0003104 321.6266 251.4530  1.00278412 53739
BREEZE-M DEB [ADAPTOR]  
1 37787U 11035E   26093.87560918 -.00000186  00000+0  00000+0 0  9990
2 37787  24.3510  74.7944 6150803 155.9339 236.0382  2.05987757108588
ZHONGXING-1A            
1 37804U 11047A   26094.21528663  .00000109  00000+0  00000+0 0  9997
2 37804   3.5281  79.2857 0003967 278.5873 109.2272  1.00042677 26598
COSMOS 2473             
1 37806U 11048A   26094.21623998  .00000133  00000+0  00000+0 0  9994
2 37806   5.3901  74.3817 0004135 149.6877 248.3611  1.00223111  6731
BREEZE-M R/B            
1 37807U 11048B   26094.04056594 -.00000162  00000+0  00000+0 0  9991
2 37807   9.9224  43.5699 0228308  82.4679 113.7383  1.04264067 54845
SES-2                   
1 37809U 11049A   26094.17961351 -.00000197  00000+0  00000+0 0  9992
2 37809   0.0544  65.7512 0002948 309.8626 154.5451  1.00272411 53220
ARABSAT-5C              
1 37810U 11049B   26094.19419966  .00000122  00000+0  00000+0 0  9993
2 37810   0.0559  22.1436 0002773 354.2790 265.9839  1.00270748 53297
EUTELSAT 7 WEST A       
1 37816U 11051A   26094.17481314 -.00000061  00000+0  00000+0 0  9999
2 37816   0.0774  29.8657 0001620  90.2120 128.0056  1.00272662 53135
QUETZSAT 1              
1 37826U 11054A   26094.23227337 -.00000242  00000+0  00000+0 0  9994
2 37826   0.0494  59.2742 0002321 313.5282 186.3740  1.00272088 49130
INTELSAT 18 (IS-18)     
1 37834U 11056A   26094.21190662  .00000053  00000+0  00000+0 0  9992
2 37834   0.0177 250.8938 0001978 124.3087  73.6110  1.00273746 53069
